HAWK-7B                 
1 56193U 23054R   26198.70259496  .00002815  00000+0  10686-3 0  9995
2 56193  97.2682  83.5386 0001050  10.8602 349.2660 15.27645853181686
HAWK-7C                 
1 56200U 23054Y   26198.63696519  .00002819  00000+0  10699-3 0  9995
2 56200  97.2658  84.2340 0000687 342.1037  18.0178 15.27648156181677
HAWK-8A                 
1 59443U 24066B   26198.83019889  .00001217  00000+0  11688-3 0  9992
2 59443  45.5954 118.1907 0003127 230.4863 129.5742 14.99293042124432
HAWK-8B                 
1 59445U 24066D   26198.23097902  .00000292  00000+0  42270-4 0  9994
2 59445  45.6178 123.2737 0003315 231.8732 128.1850 14.99293112124332
HAWK-9A                 
1 59446U 24066E   26198.85362826  .00000627  00000+0  69398-4 0  9995
2 59446  45.6096 118.7180 0003004 217.3202 142.7471 14.99219912124437
HAWK-9C                 
1 59448U 24066G   26198.92053114  .00000563  00000+0  64227-4 0  9997
2 59448  45.6066 117.4705 0002865 202.9982 157.0771 14.99218570124446
HAWK-8C                 
1 59449U 24066H   26198.89676657  .00000527  00000+0  61175-4 0  9996
2 59449  45.6075 118.8468 0002955 239.9569 120.1020 14.99293779124430
HAWK-9B                 
1 59450U 24066J   26198.92057265  .00000621  00000+0  68904-4 0  9992
2 59450  45.6123 119.3089 0003149 198.6641 161.4125 14.99214968124447
HAWK-10A                
1 60540U 24149CA  26198.79217484  .00000172  00000+0  20124-4 0  9995
2 60540  97.6885 274.1778 0002852 352.5627   7.5552 14.96593914104564
HAWK-10B                
1 60545U 24149CF  26198.79203980  .00000221  00000+0  24411-4 0  9994
2 60545  97.6803 273.5017 0005151   5.0864 355.0409 14.96592857104563
HAWK-10C                
1 60575U 24149DM  26198.92610062  .00000338  00000+0  34662-4 0  9993
2 60575  97.6721 272.9407 0002410 336.9496  23.1617 14.96591946104587
HAWK-11B                
1 62379U 24247C   26198.78085998  .00003924  00000+0  13986-3 0  9993
2 62379  45.0157 122.0020 0002569  38.6620 321.4448 15.30690290 87696
HAWK-11C                
1 62381U 24247E   26198.84567422  .00004146  00000+0  14720-3 0  9994
2 62381  45.0043 120.9743 0003477  25.2448 334.8606 15.30687506 87703
HAWK-11A                
1 62382U 24247F   26198.84576778  .00004210  00000+0  14932-3 0  9996
2 62382  44.9937 120.2997 0002942  24.0902 336.0120 15.30684078 87702
HAWK-12C                
1 64621U 25138A   26198.95154282  .00002265  00000+0  11311-3 0  9994
2 64621  97.4353 200.8776 0015069  42.5235 317.7164 15.18418048 58534
HAWK-12B                
1 64622U 25138B   26198.95171729  .00002256  00000+0  11270-3 0  9994
2 64622  97.4476 201.5757 0013930  38.5590 321.6637 15.18417402 58534
