{"fetched_at":"2026-07-18T06:28:09.110Z","source":"https://celestrak.org/NORAD/elements/gp.php?NAME=HAWK&FORMAT=JSON","constellation":"hawkeye-360","records":[{"OBJECT_NAME":"HAWK-7B","OBJECT_ID":"2023-054R","EPOCH":"2026-07-17T16:51:44.204544","CLASSIFICATION_TYPE":"U","MEAN_MOTION":15.27645853,"ECCENTRICITY":0.00010507,"INCLINATION":97.2682,"RA_OF_ASC_NODE":83.5386,"ARG_OF_PERICENTER":10.8602,"MEAN_ANOMALY":349.266,"EPHEMERIS_TYPE":0,"NORAD_CAT_ID":56193,"ELEMENT_SET_NO":999,"REV_AT_EPOCH":18168,"BSTAR":0.00010685579,"MEAN_MOTION_DOT":0.00002815,"MEAN_MOTION_DDOT":0},{"OBJECT_NAME":"HAWK-7C","OBJECT_ID":"2023-054Y","EPOCH":"2026-07-17T15:17:13.792416","CLASSIFICATION_TYPE":"U","MEAN_MOTION":15.27648156,"ECCENTRICITY":0.0000687,"INCLINATION":97.2658,"RA_OF_ASC_NODE":84.234,"ARG_OF_PERICENTER":342.1037,"MEAN_ANOMALY":18.0178,"EPHEMERIS_TYPE":0,"NORAD_CAT_ID":56200,"ELEMENT_SET_NO":999,"REV_AT_EPOCH":18167,"BSTAR":0.00010699,"MEAN_MOTION_DOT":0.00002819,"MEAN_MOTION_DDOT":0},{"OBJECT_NAME":"HAWK-8A","OBJECT_ID":"2024-066B","EPOCH":"2026-07-17T19:55:29.184096","CLASSIFICATION_TYPE":"U","MEAN_MOTION":14.99293042,"ECCENTRICITY":0.00031278,"INCLINATION":45.5954,"RA_OF_ASC_NODE":118.1907,"ARG_OF_PERICENTER":230.4863,"MEAN_ANOMALY":129.5742,"EPHEMERIS_TYPE":0,"NORAD_CAT_ID":59443,"ELEMENT_SET_NO":999,"REV_AT_EPOCH":12443,"BSTAR":0.00011687728,"MEAN_MOTION_DOT":0.00001217,"MEAN_MOTION_DDOT":0},{"OBJECT_NAME":"HAWK-8B","OBJECT_ID":"2024-066D","EPOCH":"2026-07-17T05:32:36.587328","CLASSIFICATION_TYPE":"U","MEAN_MOTION":14.99293112,"ECCENTRICITY":0.0003315,"INCLINATION":45.6178,"RA_OF_ASC_NODE":123.2737,"ARG_OF_PERICENTER":231.8732,"MEAN_ANOMALY":128.185,"EPHEMERIS_TYPE":0,"NORAD_CAT_ID":59445,"ELEMENT_SET_NO":999,"REV_AT_EPOCH":12433,"BSTAR":0.00004227,"MEAN_MOTION_DOT":0.00000292,"MEAN_MOTION_DDOT":0},{"OBJECT_NAME":"HAWK-9A","OBJECT_ID":"2024-066E","EPOCH":"2026-07-17T20:29:13.481664","CLASSIFICATION_TYPE":"U","MEAN_MOTION":14.99219912,"ECCENTRICITY":0.00030045,"INCLINATION":45.6096,"RA_OF_ASC_NODE":118.718,"ARG_OF_PERICENTER":217.3202,"MEAN_ANOMALY":142.7471,"EPHEMERIS_TYPE":0,"NORAD_CAT_ID":59446,"ELEMENT_SET_NO":999,"REV_AT_EPOCH":12443,"BSTAR":0.000069397928,"MEAN_MOTION_DOT":0.00000627,"MEAN_MOTION_DDOT":0},{"OBJECT_NAME":"HAWK-9C","OBJECT_ID":"2024-066G","EPOCH":"2026-07-17T22:05:33.890496","CLASSIFICATION_TYPE":"U","MEAN_MOTION":14.9921857,"ECCENTRICITY":0.00028657,"INCLINATION":45.6066,"RA_OF_ASC_NODE":117.4705,"ARG_OF_PERICENTER":202.9982,"MEAN_ANOMALY":157.0771,"EPHEMERIS_TYPE":0,"NORAD_CAT_ID":59448,"ELEMENT_SET_NO":999,"REV_AT_EPOCH":12444,"BSTAR":0.000064226624,"MEAN_MOTION_DOT":0.00000563,"MEAN_MOTION_DDOT":0},{"OBJECT_NAME":"HAWK-8C","OBJECT_ID":"2024-066H","EPOCH":"2026-07-17T21:31:20.631648","CLASSIFICATION_TYPE":"U","MEAN_MOTION":14.99293779,"ECCENTRICITY":0.00029554,"INCLINATION":45.6075,"RA_OF_ASC_NODE":118.8468,"ARG_OF_PERICENTER":239.9569,"MEAN_ANOMALY":120.102,"EPHEMERIS_TYPE":0,"NORAD_CAT_ID":59449,"ELEMENT_SET_NO":999,"REV_AT_EPOCH":12443,"BSTAR":0.00006117507,"MEAN_MOTION_DOT":0.00000527,"MEAN_MOTION_DDOT":0},{"OBJECT_NAME":"HAWK-9B","OBJECT_ID":"2024-066J","EPOCH":"2026-07-17T22:05:37.476960","CLASSIFICATION_TYPE":"U","MEAN_MOTION":14.99214968,"ECCENTRICITY":0.00031499,"INCLINATION":45.6123,"RA_OF_ASC_NODE":119.3089,"ARG_OF_PERICENTER":198.6641,"MEAN_ANOMALY":161.4125,"EPHEMERIS_TYPE":0,"NORAD_CAT_ID":59450,"ELEMENT_SET_NO":999,"REV_AT_EPOCH":12444,"BSTAR":0.000068904155,"MEAN_MOTION_DOT":0.00000621,"MEAN_MOTION_DDOT":0},{"OBJECT_NAME":"HAWK-10A","OBJECT_ID":"2024-149CA","EPOCH":"2026-07-17T19:00:43.906176","CLASSIFICATION_TYPE":"U","MEAN_MOTION":14.96593914,"ECCENTRICITY":0.00028529,"INCLINATION":97.6885,"RA_OF_ASC_NODE":274.1778,"ARG_OF_PERICENTER":352.5627,"MEAN_ANOMALY":7.5552,"EPHEMERIS_TYPE":0,"NORAD_CAT_ID":60540,"ELEMENT_SET_NO":999,"REV_AT_EPOCH":10456,"BSTAR":0.000020124156,"MEAN_MOTION_DOT":0.00000172,"MEAN_MOTION_DDOT":0},{"OBJECT_NAME":"HAWK-10B","OBJECT_ID":"2024-149CF","EPOCH":"2026-07-17T19:00:32.238720","CLASSIFICATION_TYPE":"U","MEAN_MOTION":14.96592857,"ECCENTRICITY":0.00051514,"INCLINATION":97.6803,"RA_OF_ASC_NODE":273.5017,"ARG_OF_PERICENTER":5.0864,"MEAN_ANOMALY":355.0409,"EPHEMERIS_TYPE":0,"NORAD_CAT_ID":60545,"ELEMENT_SET_NO":999,"REV_AT_EPOCH":10456,"BSTAR":0.000024410572,"MEAN_MOTION_DOT":0.00000221,"MEAN_MOTION_DDOT":0},{"OBJECT_NAME":"HAWK-10C","OBJECT_ID":"2024-149DM","EPOCH":"2026-07-17T22:13:35.093568","CLASSIFICATION_TYPE":"U","MEAN_MOTION":14.96591946,"ECCENTRICITY":0.00024105,"INCLINATION":97.6721,"RA_OF_ASC_NODE":272.9407,"ARG_OF_PERICENTER":336.9496,"MEAN_ANOMALY":23.1617,"EPHEMERIS_TYPE":0,"NORAD_CAT_ID":60575,"ELEMENT_SET_NO":999,"REV_AT_EPOCH":10458,"BSTAR":0.000034662033,"MEAN_MOTION_DOT":0.00000338,"MEAN_MOTION_DDOT":0},{"OBJECT_NAME":"HAWK-11B","OBJECT_ID":"2024-247C","EPOCH":"2026-07-17T18:44:26.302272","CLASSIFICATION_TYPE":"U","MEAN_MOTION":15.3069029,"ECCENTRICITY":0.00025693,"INCLINATION":45.0157,"RA_OF_ASC_NODE":122.002,"ARG_OF_PERICENTER":38.662,"MEAN_ANOMALY":321.4448,"EPHEMERIS_TYPE":0,"NORAD_CAT_ID":62379,"ELEMENT_SET_NO":999,"REV_AT_EPOCH":8769,"BSTAR":0.00013986012,"MEAN_MOTION_DOT":0.00003924,"MEAN_MOTION_DDOT":0},{"OBJECT_NAME":"HAWK-11C","OBJECT_ID":"2024-247E","EPOCH":"2026-07-17T20:17:46.252608","CLASSIFICATION_TYPE":"U","MEAN_MOTION":15.30687506,"ECCENTRICITY":0.00034771,"INCLINATION":45.0043,"RA_OF_ASC_NODE":120.9743,"ARG_OF_PERICENTER":25.2448,"MEAN_ANOMALY":334.8606,"EPHEMERIS_TYPE":0,"NORAD_CAT_ID":62381,"ELEMENT_SET_NO":999,"REV_AT_EPOCH":8770,"BSTAR":0.00014720013,"MEAN_MOTION_DOT":0.00004146,"MEAN_MOTION_DDOT":0},{"OBJECT_NAME":"HAWK-11A","OBJECT_ID":"2024-247F","EPOCH":"2026-07-17T20:17:54.336192","CLASSIFICATION_TYPE":"U","MEAN_MOTION":15.30684078,"ECCENTRICITY":0.00029429,"INCLINATION":44.9937,"RA_OF_ASC_NODE":120.2997,"ARG_OF_PERICENTER":24.0902,"MEAN_ANOMALY":336.012,"EPHEMERIS_TYPE":0,"NORAD_CAT_ID":62382,"ELEMENT_SET_NO":999,"REV_AT_EPOCH":8770,"BSTAR":0.00014932343,"MEAN_MOTION_DOT":0.0000421,"MEAN_MOTION_DDOT":0},{"OBJECT_NAME":"HAWK-12C","OBJECT_ID":"2025-138A","EPOCH":"2026-07-17T22:50:13.299648","CLASSIFICATION_TYPE":"U","MEAN_MOTION":15.18418048,"ECCENTRICITY":0.00150697,"INCLINATION":97.4353,"RA_OF_ASC_NODE":200.8776,"ARG_OF_PERICENTER":42.5235,"MEAN_ANOMALY":317.7164,"EPHEMERIS_TYPE":0,"NORAD_CAT_ID":64621,"ELEMENT_SET_NO":999,"REV_AT_EPOCH":5853,"BSTAR":0.0001131073,"MEAN_MOTION_DOT":0.00002265,"MEAN_MOTION_DDOT":0},{"OBJECT_NAME":"HAWK-12B","OBJECT_ID":"2025-138B","EPOCH":"2026-07-17T22:50:28.373856","CLASSIFICATION_TYPE":"U","MEAN_MOTION":15.18417402,"ECCENTRICITY":0.00139305,"INCLINATION":97.4476,"RA_OF_ASC_NODE":201.5757,"ARG_OF_PERICENTER":38.559,"MEAN_ANOMALY":321.6637,"EPHEMERIS_TYPE":0,"NORAD_CAT_ID":64622,"ELEMENT_SET_NO":999,"REV_AT_EPOCH":5853,"BSTAR":0.00011270133,"MEAN_MOTION_DOT":0.00002256,"MEAN_MOTION_DDOT":0}]}
